{
  "type": "FeatureCollection",
  "features": [
    {
      "type": "Feature",
      "properties": {
        "norad_id": 50032,
        "name": "COSMOS 1408 DEB",
        "group": "cosmos-1408-debris",
        "lat": 22.351357247382417,
        "lon": 49.79584103098122,
        "alt_km": 437.7361975026479,
        "timestamp": "2025-12-24T05:51:19.878973+00:00",
        "meta_object_name": "COSMOS 1408 DEB",
        "meta_object_id": "1982-092RU",
        "meta_epoch": "2025-12-23T04:54:00.638784",
        "meta_mean_motion": 15.45793948,
        "meta_eccentricity": 0.00163136,
        "meta_inclination": 82.563,
        "meta_ra_of_asc_node": 47.7829,
        "meta_arg_of_pericenter": 169.8241,
        "meta_mean_anomaly": 190.3342,
        "meta_ephemeris_type": 0,
        "meta_classification_type": "U",
        "meta_norad_cat_id": 50032,
        "meta_element_set_no": 999,
        "meta_rev_at_epoch": 22765,
        "meta_bstar": 0.00010744328,
        "meta_mean_motion_dot": 5.269e-05,
        "meta_mean_motion_ddot": 0,
        "tle_line1": "1 50032U 82092RU  25357.20417406  .00005269  00000+0  10744-3 0  9997",
        "tle_line2": "2 50032  82.5630  47.7829 0016313 169.8241 190.3342 15.45793948227657"
      },
      "geometry": {
        "type": "Point",
        "coordinates": [
          49.79584103098122,
          22.351357247382417
        ]
      }
    },
    {
      "type": "Feature",
      "properties": {
        "norad_id": 50058,
        "name": "COSMOS 1408 DEB",
        "group": "cosmos-1408-debris",
        "lat": -79.61271378817675,
        "lon": 12.231040465050524,
        "alt_km": 389.76660451298267,
        "timestamp": "2025-12-24T05:51:19.878993+00:00",
        "meta_object_name": "COSMOS 1408 DEB",
        "meta_object_id": "1982-092SW",
        "meta_epoch": "2025-12-23T04:07:00.859872",
        "meta_mean_motion": 15.64713,
        "meta_eccentricity": 0.00159845,
        "meta_inclination": 82.6118,
        "meta_ra_of_asc_node": 58.4192,
        "meta_arg_of_pericenter": 63.7743,
        "meta_mean_anomaly": 296.5157,
        "meta_ephemeris_type": 0,
        "meta_classification_type": "U",
        "meta_norad_cat_id": 50058,
        "meta_element_set_no": 999,
        "meta_rev_at_epoch": 22967,
        "meta_bstar": 0.00034025417,
        "meta_mean_motion_dot": 0.00033308,
        "meta_mean_motion_ddot": 0,
        "tle_line1": "1 50058U 82092SW  25357.17153773  .00033308  00000+0  34025-3 0  9998",
        "tle_line2": "2 50058  82.6118  58.4192 0015984  63.7743 296.5157 15.64713000229670"
      },
      "geometry": {
        "type": "Point",
        "coordinates": [
          12.231040465050524,
          -79.61271378817675
        ]
      }
    },
    {
      "type": "Feature",
      "properties": {
        "norad_id": 50404,
        "name": "COSMOS 1408 DEB",
        "group": "cosmos-1408-debris",
        "lat": 50.59617109908276,
        "lon": 13.637722689106706,
        "alt_km": 414.9088409838487,
        "timestamp": "2025-12-24T05:51:19.879006+00:00",
        "meta_object_name": "COSMOS 1408 DEB",
        "meta_object_id": "1982-092ADS",
        "meta_epoch": "2025-12-23T00:45:48.911904",
        "meta_mean_motion": 15.15350794,
        "meta_eccentricity": 0.01677821,
        "meta_inclination": 82.2023,
        "meta_ra_of_asc_node": 204.4845,
        "meta_arg_of_pericenter": 163.5527,
        "meta_mean_anomaly": 197.1246,
        "meta_ephemeris_type": 0,
        "meta_classification_type": "U",
        "meta_norad_cat_id": 50404,
        "meta_element_set_no": 999,
        "meta_rev_at_epoch": 21349,
        "meta_bstar": 0.0032418287,
        "meta_mean_motion_dot": 0.00088331,
        "meta_mean_motion_ddot": 0,
        "tle_line1": "1 50404U 82092ADS 25357.03181611  .00088331  00000+0  32418-2 0  9999",
        "tle_line2": "2 50404  82.2023 204.4845 0167782 163.5527 197.1246 15.15350794213498"
      },
      "geometry": {
        "type": "Point",
        "coordinates": [
          13.637722689106706,
          50.59617109908276
        ]
      }
    },
    {
      "type": "Feature",
      "properties": {
        "norad_id": 50621,
        "name": "COSMOS 1408 DEB",
        "group": "cosmos-1408-debris",
        "lat": -16.19944132184849,
        "lon": 60.026152350817824,
        "alt_km": 412.5156185433443,
        "timestamp": "2025-12-24T05:51:19.879017+00:00",
        "meta_object_name": "COSMOS 1408 DEB",
        "meta_object_id": "1982-092ALR",
        "meta_epoch": "2025-12-23T14:30:12.364992",
        "meta_mean_motion": 15.57201045,
        "meta_eccentricity": 0.00290955,
        "meta_inclination": 82.5688,
        "meta_ra_of_asc_node": 62.8659,
        "meta_arg_of_pericenter": 113.3373,
        "meta_mean_anomaly": 247.0948,
        "meta_ephemeris_type": 0,
        "meta_classification_type": "U",
        "meta_norad_cat_id": 50621,
        "meta_element_set_no": 999,
        "meta_rev_at_epoch": 22419,
        "meta_bstar": 0.00035622213,
        "meta_mean_motion_dot": 0.00026487,
        "meta_mean_motion_ddot": 0,
        "tle_line1": "1 50621U 82092ALR 25357.60430978  .00026487  00000+0  35622-3 0  9991",
        "tle_line2": "2 50621  82.5688  62.8659 0029095 113.3373 247.0948 15.57201045224197"
      },
      "geometry": {
        "type": "Point",
        "coordinates": [
          60.026152350817824,
          -16.19944132184849
        ]
      }
    }
  ]
}